[{"OBJECT_NAME":"STARLINK-30811","OBJECT_ID":"2023-166T","EPOCH":"2026-03-09T16:45:54.091008","MEAN_MOTION":15.30188354,"ECCENTRICITY":0.00012319,"INCLINATION":53.1601,"RA_OF_ASC_NODE":219.367,"ARG_OF_PERICENTER":84.4517,"MEAN_ANOMALY":275.6624,"EPHEMERIS_TYPE":0,"CLASSIFICATION_TYPE":"U","NORAD_CAT_ID":58167,"ELEMENT_SET_NO":999,"REV_AT_EPOCH":13303,"BSTAR":3.2352715e-5,"MEAN_MOTION_DOT":5.99e-6,"MEAN_MOTION_DDOT":0},{"OBJECT_NAME":"OBJECT P","OBJECT_ID":"2018-099P","EPOCH":"2026-03-09T16:35:55.790016","MEAN_MOTION":15.30834106,"ECCENTRICITY":0.00076856,"INCLINATION":97.4366,"RA_OF_ASC_NODE":131.9195,"ARG_OF_PERICENTER":276.7627,"MEAN_ANOMALY":83.2739,"EPHEMERIS_TYPE":0,"CLASSIFICATION_TYPE":"U","NORAD_CAT_ID":43771,"ELEMENT_SET_NO":999,"REV_AT_EPOCH":39830,"BSTAR":0.00063632878,"MEAN_MOTION_DOT":0.00018926,"MEAN_MOTION_DDOT":0}]
